{"type": "FeatureCollection", "features": [ {"type": "Feature", "properties": {"norad_id": 40118, "name": "GAOFEN-2", "group": "resource", "lat": 20.22976224584215, "lon": -116.65775378662177, "alt_km": 626.9855693612708, "timestamp": "2025-12-27T03:58:43.835207+00:00", "meta": {"OBJECT_NAME": "GAOFEN-2", "OBJECT_ID": "2014-049A", "EPOCH": "2025-12-26T20:46:27.261120", "MEAN_MOTION": 14.80632328, "ECCENTRICITY": 0.0008712, "INCLINATION": 98.0362, "RA_OF_ASC_NODE": 60.0572, "ARG_OF_PERICENTER": 74.1061, "MEAN_ANOMALY": 286.111, "EPHEMERIS_TYPE": 0, "CLASSIFICATION_TYPE": "U", "NORAD_CAT_ID": 40118, "ELEMENT_SET_NO": 999, "REV_AT_EPOCH": 61373, "BSTAR": 0.00013668, "MEAN_MOTION_DOT": 9.96e-06, "MEAN_MOTION_DDOT": 0}, "tle": {"line1": "1 40118U 14049A   25360.86559330  .00000996  00000+0  13668-3 0  9997", "line2": "2 40118  98.0362  60.0572 0008712  74.1061 286.1110 14.80632328613737"}}, "geometry": {"type": "Point", "coordinates": [-116.65775378662177, 20.22976224584215]}}, {"type": "Feature", "properties": {"norad_id": 40143, "name": "YAOGAN-21", "group": "resource", "lat": -18.1777061684348, "lon": -138.5196912917669, "alt_km": 504.63839957436903, "timestamp": "2025-12-27T03:58:43.835216+00:00", "meta": {"OBJECT_NAME": "YAOGAN-21", "OBJECT_ID": "2014-053A", "EPOCH": "2025-12-26T20:48:26.765280", "MEAN_MOTION": 15.23815803, "ECCENTRICITY": 0.0008308, "INCLINATION": 97.1737, "RA_OF_ASC_NODE": 43.5647, "ARG_OF_PERICENTER": 354.3536, "MEAN_ANOMALY": 5.7607, "EPHEMERIS_TYPE": 0, "CLASSIFICATION_TYPE": "U", "NORAD_CAT_ID": 40143, "ELEMENT_SET_NO": 999, "REV_AT_EPOCH": 62869, "BSTAR": 0.00021374, "MEAN_MOTION_DOT": 5.086e-05, "MEAN_MOTION_DDOT": 0}, "tle": {"line1": "1 40143U 14053A   25360.86697645  .00005086  00000+0  21374-3 0  9990", "line2": "2 40143  97.1737  43.5647 0008308 354.3536   5.7607 15.23815803628697"}}, "geometry": {"type": "Point", "coordinates": [-138.5196912917669, -18.1777061684348]}}, {"type": "Feature", "properties": {"norad_id": 40275, "name": "YAOGAN-22", "group": "resource", "lat": 36.98749257781101, "lon": 136.56846170385188, "alt_km": 1203.6453303340859, "timestamp": "2025-12-27T03:58:43.835226+00:00", "meta": {"OBJECT_NAME": "YAOGAN-22", "OBJECT_ID": "2014-063A", "EPOCH": "2025-12-26T20:29:10.891392", "MEAN_MOTION": 13.15523311, "ECCENTRICITY": 0.0006119, "INCLINATION": 100.7431, "RA_OF_ASC_NODE": 144.4729, "ARG_OF_PERICENTER": 214.4556, "MEAN_ANOMALY": 145.6159, "EPHEMERIS_TYPE": 0, "CLASSIFICATION_TYPE": "U", "NORAD_CAT_ID": 40275, "ELEMENT_SET_NO": 999, "REV_AT_EPOCH": 53715, "BSTAR": 5.7598e-05, "MEAN_MOTION_DOT": -2.5e-07, "MEAN_MOTION_DDOT": 0}, "tle": {"line1": "1 40275U 14063A   25360.85359828 -.00000025  00000+0  57598-4 0  9991", "line2": "2 40275 100.7431 144.4729 0006119 214.4556 145.6159 13.15523311537158"}}, "geometry": {"type": "Point", "coordinates": [136.56846170385188, 36.98749257781101]}}, {"type": "Feature", "properties": {"norad_id": 40298, "name": "ASNARO", "group": "resource", "lat": 32.88349192189591, "lon": 71.96391118682598, "alt_km": 502.038590074927, "timestamp": "2025-12-27T03:58:43.835236+00:00", "meta": {"OBJECT_NAME": "ASNARO", "OBJECT_ID": "2014-070A", "EPOCH": "2025-12-26T19:55:56.707680", "MEAN_MOTION": 15.19781174, "ECCENTRICITY": 0.0005655, "INCLINATION": 97.3629, "RA_OF_ASC_NODE": 76.4324, "ARG_OF_PERICENTER": 83.8916, "MEAN_ANOMALY": 276.2963, "EPHEMERIS_TYPE": 0, "CLASSIFICATION_TYPE": "U", "NORAD_CAT_ID": 40298, "ELEMENT_SET_NO": 999, "REV_AT_EPOCH": 61783, "BSTAR": 0.0003947, "MEAN_MOTION_DOT": 8.387e-05, "MEAN_MOTION_DDOT": 0}, "tle": {"line1": "1 40298U 14070A   25360.83051745  .00008387  00000+0  39470-3 0  9995", "line2": "2 40298  97.3629  76.4324 0005655  83.8916 276.2963 15.19781174617837"}}, "geometry": {"type": "Point", "coordinates": [71.96391118682598, 32.88349192189591]}}, {"type": "Feature", "properties": {"norad_id": 40310, "name": "YAOGAN-24", "group": "resource", "lat": -81.17224751186633, "lon": -160.78388753479274, "alt_km": 659.3505685725167, "timestamp": "2025-12-27T03:58:43.835245+00:00", "meta": {"OBJECT_NAME": "YAOGAN-24", "OBJECT_ID": "2014-072A", "EPOCH": "2025-12-26T20:14:14.570880", "MEAN_MOTION": 14.7620533, "ECCENTRICITY": 0.0015212, "INCLINATION": 98.1232, "RA_OF_ASC_NODE": 132.0127, "ARG_OF_PERICENTER": 95.8303, "MEAN_ANOMALY": 264.4641, "EPHEMERIS_TYPE": 0, "CLASSIFICATION_TYPE": "U", "NORAD_CAT_ID": 40310, "ELEMENT_SET_NO": 999, "REV_AT_EPOCH": 59829, "BSTAR": 0.00013863, "MEAN_MOTION_DOT": 9.08e-06, "MEAN_MOTION_DDOT": 0}, "tle": {"line1": "1 40310U 14072A   25360.84322420  .00000908  00000+0  13863-3 0  9993", "line2": "2 40310  98.1232 132.0127 0015212  95.8303 264.4641 14.76205330598291"}}, "geometry": {"type": "Point", "coordinates": [-160.78388753479274, -81.17224751186633]}}, {"type": "Feature", "properties": {"norad_id": 40336, "name": "CBERS 4", "group": "resource", "lat": 63.600008141587956, "lon": 41.523979578802454, "alt_km": 765.9593353249893, "timestamp": "2025-12-27T03:58:43.835255+00:00", "meta": {"OBJECT_NAME": "CBERS 4", "OBJECT_ID": "2014-079A", "EPOCH": "2025-12-26T20:59:11.448384", "MEAN_MOTION": 14.35522471, "ECCENTRICITY": 0.0001888, "INCLINATION": 98.3285, "RA_OF_ASC_NODE": 58.406, "ARG_OF_PERICENTER": 97.2858, "MEAN_ANOMALY": 262.8543, "EPHEMERIS_TYPE": 0, "CLASSIFICATION_TYPE": "U", "NORAD_CAT_ID": 40336, "ELEMENT_SET_NO": 999, "REV_AT_EPOCH": 57923, "BSTAR": 2.826e-06, "MEAN_MOTION_DOT": -3.4e-07, "MEAN_MOTION_DDOT": 0}, "tle": {"line1": "1 40336U 14079A   25360.87443806 -.00000034  00000+0  28260-5 0  9993", "line2": "2 40336  98.3285  58.4060 0001888  97.2858 262.8543 14.35522471579230"}}, "geometry": {"type": "Point", "coordinates": [41.523979578802454, 63.600008141587956]}}, {"type": "Feature", "properties": {"norad_id": 40362, "name": "YAOGAN-26", "group": "resource", "lat": 12.077640351484705, "lon": -0.19121471460340347, "alt_km": 445.57519261347807, "timestamp": "2025-12-27T03:58:43.835265+00:00", "meta": {"OBJECT_NAME": "YAOGAN-26", "OBJECT_ID": "2014-088A", "EPOCH": "2025-12-26T21:41:15.285696", "MEAN_MOTION": 15.39809157, "ECCENTRICITY": 0.000414, "INCLINATION": 97.0649, "RA_OF_ASC_NODE": 1.0764, "ARG_OF_PERICENTER": 344.5371, "MEAN_ANOMALY": 15.5749, "EPHEMERIS_TYPE": 0, "CLASSIFICATION_TYPE": "U", "NORAD_CAT_ID": 40362, "ELEMENT_SET_NO": 999, "REV_AT_EPOCH": 61112, "BSTAR": 0.00063859, "MEAN_MOTION_DOT": 0.00025297, "MEAN_MOTION_DDOT": 0}, "tle": {"line1": "1 40362U 14088A   25360.90364914  .00025297  00000+0  63859-3 0  9996", "line2": "2 40362  97.0649   1.0764 0004140 344.5371  15.5749 15.39809157611126"}}, "geometry": {"type": "Point", "coordinates": [-0.19121471460340347, 12.077640351484705]}}, {"type": "Feature", "properties": {"norad_id": 40376, "name": "SMAP", "group": "resource", "lat": -81.80472910907379, "lon": 88.64776474763458, "alt_km": 690.561314757655, "timestamp": "2025-12-27T03:58:43.835275+00:00", "meta": {"OBJECT_NAME": "SMAP", "OBJECT_ID": "2015-003A", "EPOCH": "2025-12-26T18:32:20.128416", "MEAN_MOTION": 14.63362285, "ECCENTRICITY": 0.0001239, "INCLINATION": 98.1291, "RA_OF_ASC_NODE": 5.2941, "ARG_OF_PERICENTER": 92.487, "MEAN_ANOMALY": 267.6474, "EPHEMERIS_TYPE": 0, "CLASSIFICATION_TYPE": "U", "NORAD_CAT_ID": 40376, "ELEMENT_SET_NO": 999, "REV_AT_EPOCH": 58240, "BSTAR": 0.00012541, "MEAN_MOTION_DOT": 6.01e-06, "MEAN_MOTION_DDOT": 0}, "tle": {"line1": "1 40376U 15003A   25360.77245519  .00000601  00000+0  12541-3 0  9997", "line2": "2 40376  98.1291   5.2941 0001239  92.4870 267.6474 14.63362285582403"}}, "geometry": {"type": "Point", "coordinates": [88.64776474763458, -81.80472910907379]}}, {"type": "Feature", "properties": {"norad_id": 40536, "name": "KOMPSAT-3A", "group": "resource", "lat": -14.99572339835972, "lon": 154.2439461256093, "alt_km": 438.33905966415296, "timestamp": "2025-12-27T03:58:43.835284+00:00", "meta": {"OBJECT_NAME": "KOMPSAT-3A", "OBJECT_ID": "2015-014A", "EPOCH": "2025-12-26T20:55:04.516320", "MEAN_MOTION": 15.44473983, "ECCENTRICITY": 0.000566, "INCLINATION": 97.6807, "RA_OF_ASC_NODE": 336.0049, "ARG_OF_PERICENTER": 96.827, "MEAN_ANOMALY": 263.3622, "EPHEMERIS_TYPE": 0, "CLASSIFICATION_TYPE": "U", "NORAD_CAT_ID": 40536, "ELEMENT_SET_NO": 999, "REV_AT_EPOCH": 59513, "BSTAR": 0.0004678, "MEAN_MOTION_DOT": 0.00021615, "MEAN_MOTION_DDOT": 0}, "tle": {"line1": "1 40536U 15014A   25360.87158005  .00021615  00000+0  46780-3 0  9991", "line2": "2 40536  97.6807 336.0049 0005660  96.8270 263.3622 15.44473983595136"}}, "geometry": {"type": "Point", "coordinates": [154.2439461256093, -14.99572339835972]}}, {"type": "Feature", "properties": {"norad_id": 40697, "name": "SENTINEL-2A", "group": "resource", "lat": -70.26296857953342, "lon": -131.36509716460037, "alt_km": 797.007406448718, "timestamp": "2025-12-27T03:58:43.835294+00:00", "meta": {"OBJECT_NAME": "SENTINEL-2A", "OBJECT_ID": "2015-028A", "EPOCH": "2025-12-26T20:05:26.762784", "MEAN_MOTION": 14.30810799, "ECCENTRICITY": 0.0001044, "INCLINATION": 98.5724, "RA_OF_ASC_NODE": 73.1722, "ARG_OF_PERICENTER": 87.4763, "MEAN_ANOMALY": 272.6539, "EPHEMERIS_TYPE": 0, "CLASSIFICATION_TYPE": "U", "NORAD_CAT_ID": 40697, "ELEMENT_SET_NO": 999, "REV_AT_EPOCH": 54908, "BSTAR": 4.8673e-05, "MEAN_MOTION_DOT": 8.4e-07, "MEAN_MOTION_DDOT": 0}, "tle": {"line1": "1 40697U 15028A   25360.83711531  .00000084  00000+0  48673-4 0  9990", "line2": "2 40697  98.5724  73.1722 0001044  87.4763 272.6539 14.30810799549081"}}, "geometry": {"type": "Point", "coordinates": [-131.36509716460037, -70.26296857953342]}}]}